KUIPER-00035            
1 63748U 25088AA  25310.93827461  .00003943  00000+0  54652-3 0  9995
2 63748  51.9023 296.9173 0005701  28.6954 331.4321 14.79889641 29335
KUIPER-00037            
1 63749U 25088AB  25310.66913451  .00002217  00000+0  31917-3 0  9993
2 63749  51.9013 297.0541 0008126 338.4752  21.5868 14.80016227 30090
KUIPER-00038            
1 63750U 25088AC  25310.88934381  .00003687  00000+0  50944-3 0  9997
2 63750  51.9023 281.1044 0007240  31.1625 328.9766 14.80179075 29334
KUIPER-00039            
1 64500U 25134A   25310.65831311  .00006148  00000+0  83379-3 0  9990
2 64500  51.9016  57.1197 0011607 244.2895 115.6869 14.79951212 21851
KUIPER-00040            
1 64501U 25134B   25310.78106911  .00006331  00000+0  85634-3 0  9996
2 64501  51.9010  67.7397 0017482 221.4037 138.5602 14.79965390 21713
KUIPER-00041            
1 64502U 25134C   25310.71238928  .00005837  00000+0  79258-3 0  9999
2 64502  51.9000  69.3988 0013822 214.4225 145.5843 14.79964130 21684
KUIPER-00042            
1 64503U 25134D   25310.71611007  .00007735  00000+0  10413-2 0  9999
2 64503  51.9002  65.3830 0012369 225.6352 134.3598 14.79942406 21741
KUIPER-00043            
1 64504U 25134E   25310.65673892  .00006512  00000+0  88217-3 0  9993
2 64504  51.9028  58.0839 0003302 217.6078 142.4654 14.79945505 21848
